CCSDS_OMM_VERS = 2.0
CREATION_DATE  = 
ORIGINATOR     = 

OBJECT_NAME    = HULIANWANG DIGUI-144
OBJECT_ID      = 2026-007H
CENTER_NAME    = EARTH
REF_FRAME      = TEME
TIME_SYSTEM    = UTC
MEAN_ELEMENT_THEORY = SGP/SGP4

EPOCH          = 2026-02-03T01:00:30.530592
MEAN_MOTION    = 13.80966414
ECCENTRICITY   = .00005624
INCLINATION    = 49.9801
RA_OF_ASC_NODE = 213.4402
ARG_OF_PERICENTER = 349.6651
MEAN_ANOMALY   = 10.4232

EPHEMERIS_TYPE = 0
CLASSIFICATION_TYPE = U
NORAD_CAT_ID   = 67442
ELEMENT_SET_NO = 999
REV_AT_EPOCH   = 284
BSTAR          = .12010639E-3
MEAN_MOTION_DOT = -.15E-6
MEAN_MOTION_DDOT = 0

CCSDS_OMM_VERS = 2.0
CREATION_DATE  = 
ORIGINATOR     = 

OBJECT_NAME    = HULIANWANG DIGUI-145
OBJECT_ID      = 2026-007J
CENTER_NAME    = EARTH
REF_FRAME      = TEME
TIME_SYSTEM    = UTC
MEAN_ELEMENT_THEORY = SGP/SGP4

EPOCH          = 2026-02-03T04:24:19.339488
MEAN_MOTION    = 13.81052153
ECCENTRICITY   = .00009946
INCLINATION    = 50.0094
RA_OF_ASC_NODE = 212.7889
ARG_OF_PERICENTER = 266.3471
MEAN_ANOMALY   = 93.7310

EPHEMERIS_TYPE = 0
CLASSIFICATION_TYPE = U
NORAD_CAT_ID   = 67443
ELEMENT_SET_NO = 999
REV_AT_EPOCH   = 286
BSTAR          = .13508165E-3
MEAN_MOTION_DOT = .1E-7
MEAN_MOTION_DDOT = 0

CCSDS_OMM_VERS = 2.0
CREATION_DATE  = 
ORIGINATOR     = 

OBJECT_NAME    = CZ-8A R/B
OBJECT_ID      = 2026-007K
CENTER_NAME    = EARTH
REF_FRAME      = TEME
TIME_SYSTEM    = UTC
MEAN_ELEMENT_THEORY = SGP/SGP4

EPOCH          = 2026-02-02T21:46:35.609376
MEAN_MOTION    = 14.13550781
ECCENTRICITY   = .00921909
INCLINATION    = 50.0084
RA_OF_ASC_NODE = 210.6220
ARG_OF_PERICENTER = 152.5572
MEAN_ANOMALY   = 208.0248

EPHEMERIS_TYPE = 0
CLASSIFICATION_TYPE = U
NORAD_CAT_ID   = 67444
ELEMENT_SET_NO = 999
REV_AT_EPOCH   = 286
BSTAR          = -.18912005E-4
MEAN_MOTION_DOT = -.193E-5
MEAN_MOTION_DDOT = 0

CCSDS_OMM_VERS = 2.0
CREATION_DATE  = 
ORIGINATOR     = 

OBJECT_NAME    = STARLINK-36542
OBJECT_ID      = 2026-008A
CENTER_NAME    = EARTH
REF_FRAME      = TEME
TIME_SYSTEM    = UTC
MEAN_ELEMENT_THEORY = SGP/SGP4

EPOCH          = 2026-02-03T14:00:01.999872
MEAN_MOTION    = 15.67344871
ECCENTRICITY   = .00012606
INCLINATION    = 43.0000
RA_OF_ASC_NODE = 40.5490
ARG_OF_PERICENTER = 281.9433
MEAN_ANOMALY   = 129.0711

EPHEMERIS_TYPE = 0
CLASSIFICATION_TYPE = U
NORAD_CAT_ID   = 67445
ELEMENT_SET_NO = 999
REV_AT_EPOCH   = 431
BSTAR          = -.2133206E-1
MEAN_MOTION_DOT = -.2074784E-1
MEAN_MOTION_DDOT = 0

CCSDS_OMM_VERS = 2.0
CREATION_DATE  = 
ORIGINATOR     = 

OBJECT_NAME    = STARLINK-36539
OBJECT_ID      = 2026-008B
CENTER_NAME    = EARTH
REF_FRAME      = TEME
TIME_SYSTEM    = UTC
MEAN_ELEMENT_THEORY = SGP/SGP4

EPOCH          = 2026-02-03T14:00:01.999872
MEAN_MOTION    = 15.69254880
ECCENTRICITY   = .00012726
INCLINATION    = 43.0001
RA_OF_ASC_NODE = 40.5189
ARG_OF_PERICENTER = 280.1044
MEAN_ANOMALY   = 143.1679

EPHEMERIS_TYPE = 0
CLASSIFICATION_TYPE = U
NORAD_CAT_ID   = 67446
ELEMENT_SET_NO = 999
REV_AT_EPOCH   = 431
BSTAR          = -.19692559E-1
MEAN_MOTION_DOT = -.2073734E-1
MEAN_MOTION_DDOT = 0

CCSDS_OMM_VERS = 2.0
CREATION_DATE  = 
ORIGINATOR     = 

OBJECT_NAME    = STARLINK-36440
OBJECT_ID      = 2026-008C
CENTER_NAME    = EARTH
REF_FRAME      = TEME
TIME_SYSTEM    = UTC
MEAN_ELEMENT_THEORY = SGP/SGP4

EPOCH          = 2026-02-03T14:00:01.999872
MEAN_MOTION    = 15.75045510
ECCENTRICITY   = .00016684
INCLINATION    = 42.9999
RA_OF_ASC_NODE = 40.4805
ARG_OF_PERICENTER = 276.5973
MEAN_ANOMALY   = 162.0821

EPHEMERIS_TYPE = 0
CLASSIFICATION_TYPE = U
NORAD_CAT_ID   = 67447
ELEMENT_SET_NO = 999
REV_AT_EPOCH   = 431
BSTAR          = -.53371765E-4
MEAN_MOTION_DOT = -.867E-4
MEAN_MOTION_DDOT = 0

CCSDS_OMM_VERS = 2.0
CREATION_DATE  = 
ORIGINATOR     = 

OBJECT_NAME    = STARLINK-36423
OBJECT_ID      = 2026-008D
CENTER_NAME    = EARTH
REF_FRAME      = TEME
TIME_SYSTEM    = UTC
MEAN_ELEMENT_THEORY = SGP/SGP4

EPOCH          = 2026-02-03T14:00:01.999872
MEAN_MOTION    = 15.64644144
ECCENTRICITY   = .00012655
INCLINATION    = 43.0002
RA_OF_ASC_NODE = 40.5830
ARG_OF_PERICENTER = 279.9581
MEAN_ANOMALY   = 117.2821

EPHEMERIS_TYPE = 0
CLASSIFICATION_TYPE = U
NORAD_CAT_ID   = 67448
ELEMENT_SET_NO = 999
REV_AT_EPOCH   = 431
BSTAR          = -.23695246E-1
MEAN_MOTION_DOT = -.2065819E-1
MEAN_MOTION_DDOT = 0

CCSDS_OMM_VERS = 2.0
CREATION_DATE  = 
ORIGINATOR     = 

OBJECT_NAME    = STARLINK-36519
OBJECT_ID      = 2026-008E
CENTER_NAME    = EARTH
REF_FRAME      = TEME
TIME_SYSTEM    = UTC
MEAN_ELEMENT_THEORY = SGP/SGP4

EPOCH          = 2026-02-03T14:00:01.999872
MEAN_MOTION    = 15.74894616
ECCENTRICITY   = .00018368
INCLINATION    = 43.0000
RA_OF_ASC_NODE = 40.4697
ARG_OF_PERICENTER = 274.2556
MEAN_ANOMALY   = 168.2477

EPHEMERIS_TYPE = 0
CLASSIFICATION_TYPE = U
NORAD_CAT_ID   = 67449
ELEMENT_SET_NO = 999
REV_AT_EPOCH   = 431
BSTAR          = -.1540238E-1
MEAN_MOTION_DOT = -.2068452E-1
MEAN_MOTION_DDOT = 0

CCSDS_OMM_VERS = 2.0
CREATION_DATE  = 
ORIGINATOR     = 

OBJECT_NAME    = STARLINK-36525
OBJECT_ID      = 2026-008F
CENTER_NAME    = EARTH
REF_FRAME      = TEME
TIME_SYSTEM    = UTC
MEAN_ELEMENT_THEORY = SGP/SGP4

EPOCH          = 2026-02-03T14:00:01.999872
MEAN_MOTION    = 15.67130709
ECCENTRICITY   = .000127
INCLINATION    = 43.0001
RA_OF_ASC_NODE = 40.5270
ARG_OF_PERICENTER = 279.2800
MEAN_ANOMALY   = 140.0239

EPHEMERIS_TYPE = 0
CLASSIFICATION_TYPE = U
NORAD_CAT_ID   = 67450
ELEMENT_SET_NO = 999
REV_AT_EPOCH   = 431
BSTAR          = -.2142745E-1
MEAN_MOTION_DOT = -.206691E-1
MEAN_MOTION_DDOT = 0

CCSDS_OMM_VERS = 2.0
CREATION_DATE  = 
ORIGINATOR     = 

OBJECT_NAME    = STARLINK-36511
OBJECT_ID      = 2026-008G
CENTER_NAME    = EARTH
REF_FRAME      = TEME
TIME_SYSTEM    = UTC
MEAN_ELEMENT_THEORY = SGP/SGP4

EPOCH          = 2026-02-03T14:00:01.999872
MEAN_MOTION    = 15.64905439
ECCENTRICITY   = .00012328
INCLINATION    = 43.0003
RA_OF_ASC_NODE = 40.5628
ARG_OF_PERICENTER = 280.4300
MEAN_ANOMALY   = 124.7194

EPHEMERIS_TYPE = 0
CLASSIFICATION_TYPE = U
NORAD_CAT_ID   = 67451
ELEMENT_SET_NO = 999
REV_AT_EPOCH   = 431
BSTAR          = -.23419448E-1
MEAN_MOTION_DOT = -.2063677E-1
MEAN_MOTION_DDOT = 0

CCSDS_OMM_VERS = 2.0
CREATION_DATE  = 
ORIGINATOR     = 

OBJECT_NAME    = STARLINK-36524
OBJECT_ID      = 2026-008H
CENTER_NAME    = EARTH
REF_FRAME      = TEME
TIME_SYSTEM    = UTC
MEAN_ELEMENT_THEORY = SGP/SGP4

EPOCH          = 2026-02-03T14:00:01.999872
MEAN_MOTION    = 15.67942535
ECCENTRICITY   = .00012177
INCLINATION    = 43.0000
RA_OF_ASC_NODE = 40.5055
ARG_OF_PERICENTER = 280.8664
MEAN_ANOMALY   = 147.1412

EPHEMERIS_TYPE = 0
CLASSIFICATION_TYPE = U
NORAD_CAT_ID   = 67452
ELEMENT_SET_NO = 999
REV_AT_EPOCH   = 431
BSTAR          = -.20762552E-1
MEAN_MOTION_DOT = -.207047E-1
MEAN_MOTION_DDOT = 0

CCSDS_OMM_VERS = 2.0
CREATION_DATE  = 
ORIGINATOR     = 

OBJECT_NAME    = STARLINK-36518
OBJECT_ID      = 2026-008J
CENTER_NAME    = EARTH
REF_FRAME      = TEME
TIME_SYSTEM    = UTC
MEAN_ELEMENT_THEORY = SGP/SGP4

EPOCH          = 2026-02-03T14:00:01.999872
MEAN_MOTION    = 15.70696859
ECCENTRICITY   = .00011226
INCLINATION    = 42.9992
RA_OF_ASC_NODE = 40.1044
ARG_OF_PERICENTER = 267.0396
MEAN_ANOMALY   = 318.2568

EPHEMERIS_TYPE = 0
CLASSIFICATION_TYPE = U
NORAD_CAT_ID   = 67453
ELEMENT_SET_NO = 999
REV_AT_EPOCH   = 433
BSTAR          = -.18648566E-1
MEAN_MOTION_DOT = -.208517E-1
MEAN_MOTION_DDOT = 0

