HULIANWANG DIGUI-144    
1 67442U 26007H   26034.04202003 -.00000015  00000+0  12011-3 0  9998
2 67442  49.9801 213.4402 0000562 349.6651  10.4232 13.80966414  2847
HULIANWANG DIGUI-145    
1 67443U 26007J   26034.18355717  .00000001  00000+0  13508-3 0  9991
2 67443  50.0094 212.7889 0000994 266.3471  93.7310 13.81052153  2860
CZ-8A R/B               
1 67444U 26007K   26033.90735659 -.00000193  00000+0 -18912-4 0  9997
2 67444  50.0084 210.6220 0092190 152.5572 208.0248 14.13550781  2860
STARLINK-36542          
1 67445U 26008A   26034.58335648 -.02074784  00000+0 -21332-1 0  9994
2 67445  43.0000  40.5490 0001260 281.9433 129.0711 15.67344871  4311
STARLINK-36539          
1 67446U 26008B   26034.58335648 -.02073734  00000+0 -19693-1 0  9996
2 67446  43.0001  40.5189 0001272 280.1044 143.1679 15.69254880  4312
STARLINK-36440          
1 67447U 26008C   26034.58335648 -.00008670  00000+0 -53372-4 0  9997
2 67447  42.9999  40.4805 0001668 276.5973 162.0821 15.75045510  4314
STARLINK-36423          
1 67448U 26008D   26034.58335648 -.02065819  00000+0 -23695-1 0  9990
2 67448  43.0002  40.5830 0001265 279.9581 117.2821 15.64644144  4314
STARLINK-36519          
1 67449U 26008E   26034.58335648 -.02068452  00000+0 -15402-1 0  9994
2 67449  43.0000  40.4697 0001836 274.2556 168.2477 15.74894616  4312
STARLINK-36525          
1 67450U 26008F   26034.58335648 -.02066910  00000+0 -21427-1 0  9997
2 67450  43.0001  40.5270 0001270 279.2800 140.0239 15.67130709  4314
STARLINK-36511          
1 67451U 26008G   26034.58335648 -.02063677  00000+0 -23419-1 0  9998
2 67451  43.0003  40.5628 0001232 280.4300 124.7194 15.64905439  4317
STARLINK-36524          
1 67452U 26008H   26034.58335648 -.02070470  00000+0 -20763-1 0  9997
2 67452  43.0000  40.5055 0001217 280.8664 147.1412 15.67942535  4312
STARLINK-36518          
1 67453U 26008J   26034.58335648 -.02085170  00000+0 -18649-1 0  9991
2 67453  42.9992  40.1044 0001122 267.0396 318.2568 15.70696859  4333
